[{"OBJECT_NAME":"ONEWEB-0006","OBJECT_ID":"2019-010E","EPOCH":"2026-03-09T22:27:56.417760","MEAN_MOTION":13.15547208,"ECCENTRICITY":0.00017085,"INCLINATION":87.8948,"RA_OF_ASC_NODE":278.9955,"ARG_OF_PERICENTER":96.2783,"MEAN_ANOMALY":263.8542,"EPHEMERIS_TYPE":0,"CLASSIFICATION_TYPE":"U","NORAD_CAT_ID":44061,"ELEMENT_SET_NO":999,"REV_AT_EPOCH":33837,"BSTAR":3.6231669e-5,"MEAN_MOTION_DOT":2.6e-7,"MEAN_MOTION_DDOT":0},{"OBJECT_NAME":"COSMOS 2499 DEB","OBJECT_ID":"2014-028BV","EPOCH":"2026-03-06T04:56:41.486208","MEAN_MOTION":13.36827374,"ECCENTRICITY":0.02698438,"INCLINATION":82.2888,"RA_OF_ASC_NODE":245.0785,"ARG_OF_PERICENTER":29.424,"MEAN_ANOMALY":332.1779,"EPHEMERIS_TYPE":0,"CLASSIFICATION_TYPE":"U","NORAD_CAT_ID":60609,"ELEMENT_SET_NO":999,"REV_AT_EPOCH":13666,"BSTAR":0.012747109,"MEAN_MOTION_DOT":8.154e-5,"MEAN_MOTION_DDOT":0}]
